[{"OBJECT_NAME":"HORS 2","OBJECT_ID":"2023-091AG","EPOCH":"2026-03-09T22:11:34.810944","MEAN_MOTION":15.2928008,"ECCENTRICITY":0.00098173,"INCLINATION":97.5195,"RA_OF_ASC_NODE":134.7443,"ARG_OF_PERICENTER":79.3164,"MEAN_ANOMALY":280.9181,"EPHEMERIS_TYPE":0,"CLASSIFICATION_TYPE":"U","NORAD_CAT_ID":57196,"ELEMENT_SET_NO":999,"REV_AT_EPOCH":14934,"BSTAR":0.00059338338,"MEAN_MOTION_DOT":0.00016821,"MEAN_MOTION_DDOT":0},{"OBJECT_NAME":"STARLINK-30259","OBJECT_ID":"2023-115A","EPOCH":"2026-03-09T04:22:22.127520","MEAN_MOTION":15.26733515,"ECCENTRICITY":0.00010295,"INCLINATION":42.9984,"RA_OF_ASC_NODE":4.4614,"ARG_OF_PERICENTER":277.8055,"MEAN_ANOMALY":82.268,"EPHEMERIS_TYPE":0,"CLASSIFICATION_TYPE":"U","NORAD_CAT_ID":57521,"ELEMENT_SET_NO":999,"REV_AT_EPOCH":14349,"BSTAR":-0.00014311949,"MEAN_MOTION_DOT":-4.096e-5,"MEAN_MOTION_DDOT":0}]
